CZ-2C R/B               
1 54039U 22132E   26039.00221785  .00040392  00000+0  50959-3 0  9994
2 54039  97.2964  41.4823 0018158 192.1721 167.9100 15.59283759185741
GSLV R/B                
1 54149U 22138AN  26038.90084438  .00003902  00000+0  33961-3 0  9992
2 54149  87.3862 176.3301 0019333 258.7387 101.1672 14.96544176179472
XRISM                   
1 57800U 23137A   26039.25040372  .00007197  00000+0  41295-3 0  9996
2 57800  31.0017 114.0173 0008080 105.7749 254.3781 15.11132279133335
ACS3                    
1 59588U 24077B   26039.25048638  .00022395  00000+0  18500-1 0  9996
2 59588  97.2224 346.9808 0045515 168.6355 191.5847 13.88395469 90117
SZ-21 MODULE            
1 66515U 25246C   26038.99898823  .00035031  00000+0  33069-3 0  9992
2 66515  41.4767  25.8100 0002896 282.8703  77.1814 15.66300370 13413
